{
  "type": "FeatureCollection",
  "features": [
    {
      "type": "Feature",
      "properties": {
        "norad_id": 66489,
        "name": "STARLINK-35696",
        "group": "last-30-days",
        "lat": -33.36017037317529,
        "lon": 69.25547360395974,
        "alt_km": 416.71636216492425,
        "timestamp": "2025-12-14T14:39:28.131071+00:00",
        "meta_object_name": "STARLINK-35696",
        "meta_object_id": "2025-263E",
        "meta_epoch": "2025-12-13T17:14:44.822976",
        "meta_mean_motion": 15.50559285,
        "meta_eccentricity": 0.00017453,
        "meta_inclination": 42.9995,
        "meta_ra_of_asc_node": 119.43,
        "meta_arg_of_pericenter": 269.6287,
        "meta_mean_anomaly": 90.4373,
        "meta_ephemeris_type": 0,
        "meta_classification_type": "U",
        "meta_norad_cat_id": 66489,
        "meta_element_set_no": 999,
        "meta_rev_at_epoch": 571,
        "meta_bstar": 0.00088015794,
        "meta_mean_motion_dot": 0.00051598,
        "meta_mean_motion_ddot": 0,
        "tle_line1": "1 66489U 25263E   25347.71857434  .00051598  00000+0  88016-3 0  9994",
        "tle_line2": "2 66489  42.9995 119.4300 0001745 269.6287  90.4373 15.50559285  5712"
      },
      "geometry": {
        "type": "Point",
        "coordinates": [
          69.25547360395974,
          -33.36017037317529
        ]
      }
    },
    {
      "type": "Feature",
      "properties": {
        "norad_id": 66490,
        "name": "STARLINK-35693",
        "group": "last-30-days",
        "lat": -2.3178144716449047,
        "lon": -63.001200928360326,
        "alt_km": 444.1451294930812,
        "timestamp": "2025-12-14T14:39:28.131081+00:00",
        "meta_object_name": "STARLINK-35693",
        "meta_object_id": "2025-263F",
        "meta_epoch": "2025-12-13T22:00:00.999936",
        "meta_mean_motion": 15.40647191,
        "meta_eccentricity": 0.00017357,
        "meta_inclination": 42.9997,
        "meta_ra_of_asc_node": 118.5098,
        "meta_arg_of_pericenter": 273.4407,
        "meta_mean_anomaly": 15.7199,
        "meta_ephemeris_type": 0,
        "meta_classification_type": "U",
        "meta_norad_cat_id": 66490,
        "meta_element_set_no": 999,
        "meta_rev_at_epoch": 582,
        "meta_bstar": 0.0012651677,
        "meta_mean_motion_dot": 0.0005282,
        "meta_mean_motion_ddot": 0,
        "tle_line1": "1 66490U 25263F   25347.91667824  .00052820  00000+0  12652-2 0  9991",
        "tle_line2": "2 66490  42.9997 118.5098 0001735 273.4407  15.7199 15.40647191  5827"
      },
      "geometry": {
        "type": "Point",
        "coordinates": [
          -63.001200928360326,
          -2.3178144716449047
        ]
      }
    },
    {
      "type": "Feature",
      "properties": {
        "norad_id": 66491,
        "name": "STARLINK-35663",
        "group": "last-30-days",
        "lat": -30.38605025774766,
        "lon": 75.2006848979115,
        "alt_km": 417.0212324839749,
        "timestamp": "2025-12-14T14:39:28.131092+00:00",
        "meta_object_name": "STARLINK-35663",
        "meta_object_id": "2025-263G",
        "meta_epoch": "2025-12-13T18:46:01.125408",
        "meta_mean_motion": 15.50580507,
        "meta_eccentricity": 7.331e-05,
        "meta_inclination": 43.0004,
        "meta_ra_of_asc_node": 119.0445,
        "meta_arg_of_pericenter": 347.6413,
        "meta_mean_anomaly": 12.4429,
        "meta_ephemeris_type": 0,
        "meta_classification_type": "U",
        "meta_norad_cat_id": 66491,
        "meta_element_set_no": 999,
        "meta_rev_at_epoch": 572,
        "meta_bstar": 0.0012898785,
        "meta_mean_motion_dot": 0.00076071,
        "meta_mean_motion_ddot": 0,
        "tle_line1": "1 66491U 25263G   25347.78195747  .00076071  00000+0  12899-2 0  9994",
        "tle_line2": "2 66491  43.0004 119.0445 0000733 347.6413  12.4429 15.50580507  5726"
      },
      "geometry": {
        "type": "Point",
        "coordinates": [
          75.2006848979115,
          -30.38605025774766
        ]
      }
    },
    {
      "type": "Feature",
      "properties": {
        "norad_id": 66492,
        "name": "STARLINK-35673",
        "group": "last-30-days",
        "lat": 14.46385393070199,
        "lon": -81.50077454294193,
        "alt_km": 442.2853421592654,
        "timestamp": "2025-12-14T14:39:28.131102+00:00",
        "meta_object_name": "STARLINK-35673",
        "meta_object_id": "2025-263H",
        "meta_epoch": "2025-12-13T22:00:00.999936",
        "meta_mean_motion": 15.40662819,
        "meta_eccentricity": 0.0001582,
        "meta_inclination": 42.9998,
        "meta_ra_of_asc_node": 118.5697,
        "meta_arg_of_pericenter": 280.5817,
        "meta_mean_anomaly": 343.6532,
        "meta_ephemeris_type": 0,
        "meta_classification_type": "U",
        "meta_norad_cat_id": 66492,
        "meta_element_set_no": 999,
        "meta_rev_at_epoch": 582,
        "meta_bstar": 0.0012189595,
        "meta_mean_motion_dot": 0.00050893,
        "meta_mean_motion_ddot": 0,
        "tle_line1": "1 66492U 25263H   25347.91667824  .00050893  00000+0  12190-2 0  9998",
        "tle_line2": "2 66492  42.9998 118.5697 0001582 280.5817 343.6532 15.40662819  5827"
      },
      "geometry": {
        "type": "Point",
        "coordinates": [
          -81.50077454294193,
          14.46385393070199
        ]
      }
    },
    {
      "type": "Feature",
      "properties": {
        "norad_id": 66493,
        "name": "STARLINK-35597",
        "group": "last-30-days",
        "lat": -27.652451519209176,
        "lon": 79.96865243354297,
        "alt_km": 415.49906478089906,
        "timestamp": "2025-12-14T14:39:28.131113+00:00",
        "meta_object_name": "STARLINK-35597",
        "meta_object_id": "2025-263J",
        "meta_epoch": "2025-12-13T15:39:28.133280",
        "meta_mean_motion": 15.50759997,
        "meta_eccentricity": 0.00015659,
        "meta_inclination": 43.0001,
        "meta_ra_of_asc_node": 119.7914,
        "meta_arg_of_pericenter": 257.7294,
        "meta_mean_anomaly": 102.3391,
        "meta_ephemeris_type": 0,
        "meta_classification_type": "U",
        "meta_norad_cat_id": 66493,
        "meta_element_set_no": 999,
        "meta_rev_at_epoch": 570,
        "meta_bstar": 0.0027751539,
        "meta_mean_motion_dot": 0.00167059,
        "meta_mean_motion_ddot": 0,
        "tle_line1": "1 66493U 25263J   25347.65240895  .00167059  00000+0  27752-2 0  9998",
        "tle_line2": "2 66493  43.0001 119.7914 0001565 257.7294 102.3391 15.50759997  5701"
      },
      "geometry": {
        "type": "Point",
        "coordinates": [
          79.96865243354297,
          -27.652451519209176
        ]
      }
    },
    {
      "type": "Feature",
      "properties": {
        "norad_id": 66494,
        "name": "STARLINK-35689",
        "group": "last-30-days",
        "lat": -41.631412284515754,
        "lon": 6.85201073383516,
        "alt_km": 451.2197277644318,
        "timestamp": "2025-12-14T14:39:28.131123+00:00",
        "meta_object_name": "STARLINK-35689",
        "meta_object_id": "2025-263K",
        "meta_epoch": "2025-12-13T22:00:00.999936",
        "meta_mean_motion": 15.4223623,
        "meta_eccentricity": 0.00010203,
        "meta_inclination": 42.9999,
        "meta_ra_of_asc_node": 118.3315,
        "meta_arg_of_pericenter": 274.1899,
        "meta_mean_anomaly": 88.728,
        "meta_ephemeris_type": 0,
        "meta_classification_type": "U",
        "meta_norad_cat_id": 66494,
        "meta_element_set_no": 999,
        "meta_rev_at_epoch": 582,
        "meta_bstar": -0.053835366,
        "meta_mean_motion_dot": -0.02096361,
        "meta_mean_motion_ddot": 0,
        "tle_line1": "1 66494U 25263K   25347.91667824 -.02096361  00000+0 -53835-1 0  9994",
        "tle_line2": "2 66494  42.9999 118.3315 0001020 274.1899  88.7280 15.42236230  5824"
      },
      "geometry": {
        "type": "Point",
        "coordinates": [
          6.85201073383516,
          -41.631412284515754
        ]
      }
    },
    {
      "type": "Feature",
      "properties": {
        "norad_id": 66495,
        "name": "STARLINK-35832",
        "group": "last-30-days",
        "lat": -32.54031199061841,
        "lon": 70.9877287001742,
        "alt_km": 422.21299526264283,
        "timestamp": "2025-12-14T14:39:28.131134+00:00",
        "meta_object_name": "STARLINK-35832",
        "meta_object_id": "2025-263L",
        "meta_epoch": "2025-12-12T19:33:21.941856",
        "meta_mean_motion": 15.49798239,
        "meta_eccentricity": 0.00024982,
        "meta_inclination": 42.9996,
        "meta_ra_of_asc_node": 124.6875,
        "meta_arg_of_pericenter": 262.5587,
        "meta_mean_anomaly": 97.4989,
        "meta_ephemeris_type": 0,
        "meta_classification_type": "U",
        "meta_norad_cat_id": 66495,
        "meta_element_set_no": 999,
        "meta_rev_at_epoch": 557,
        "meta_bstar": -0.0060463366,
        "meta_mean_motion_dot": -0.00331191,
        "meta_mean_motion_ddot": 0,
        "tle_line1": "1 66495U 25263L   25346.81483729 -.00331191  00000+0 -60463-2 0  9990",
        "tle_line2": "2 66495  42.9996 124.6875 0002498 262.5587  97.4989 15.49798239  5572"
      },
      "geometry": {
        "type": "Point",
        "coordinates": [
          70.9877287001742,
          -32.54031199061841
        ]
      }
    }
  ]
}